{"type": "FeatureCollection", "features": [ {"type": "Feature", "properties": {"norad_id": 40697, "name": "SENTINEL-2A", "group": "resource", "lat": -61.12156470863508, "lon": -140.2987243520619, "alt_km": 796.7395649981536, "timestamp": "2025-12-08T23:34:03.626778+00:00", "meta": {"OBJECT_NAME": "SENTINEL-2A", "OBJECT_ID": "2015-028A", "EPOCH": "2025-12-08T14:02:50.425440", "MEAN_MOTION": 14.30825272, "ECCENTRICITY": 0.00010341, "INCLINATION": 98.5698, "RA_OF_ASC_NODE": 55.1773, "ARG_OF_PERICENTER": 94.9796, "MEAN_ANOMALY": 265.1505, "EPHEMERIS_TYPE": 0, "CLASSIFICATION_TYPE": "U", "NORAD_CAT_ID": 40697, "ELEMENT_SET_NO": 999, "REV_AT_EPOCH": 54647, "BSTAR": 0.00015047364, "MEAN_MOTION_DOT": 3.51e-06, "MEAN_MOTION_DDOT": 0}, "tle": {"line1": "1 40697U 15028A   25342.58530585  .00000351  00000+0  15047-3 0  9995", "line2": "2 40697  98.5698  55.1773 0001034  94.9796 265.1505 14.30825272546477"}}, "geometry": {"type": "Point", "coordinates": [-140.2987243520619, -61.12156470863508]}}, {"type": "Feature", "properties": {"norad_id": 40701, "name": "GAOFEN-8", "group": "resource", "lat": -80.59474883299727, "lon": -144.38578795796468, "alt_km": 462.7224120296969, "timestamp": "2025-12-08T23:34:03.626789+00:00", "meta": {"OBJECT_NAME": "GAOFEN-8", "OBJECT_ID": "2015-030A", "EPOCH": "2025-12-08T14:34:08.148864", "MEAN_MOTION": 15.38339313, "ECCENTRICITY": 0.00114264, "INCLINATION": 97.6912, "RA_OF_ASC_NODE": 160.5469, "ARG_OF_PERICENTER": 152.4045, "MEAN_ANOMALY": 207.7808, "EPHEMERIS_TYPE": 0, "CLASSIFICATION_TYPE": "U", "NORAD_CAT_ID": 40701, "ELEMENT_SET_NO": 999, "REV_AT_EPOCH": 58207, "BSTAR": 0.00062392466, "MEAN_MOTION_DOT": 0.00023588, "MEAN_MOTION_DDOT": 0}, "tle": {"line1": "1 40701U 15030A   25342.60703876  .00023588  00000+0  62392-3 0  9994", "line2": "2 40701  97.6912 160.5469 0011426 152.4045 207.7808 15.38339313582077"}}, "geometry": {"type": "Point", "coordinates": [-144.38578795796468, -80.59474883299727]}}, {"type": "Feature", "properties": {"norad_id": 40718, "name": "CARBONITE 1 (CBNT-1)", "group": "resource", "lat": -58.73322546605589, "lon": -28.579882095908065, "alt_km": 620.9504709346356, "timestamp": "2025-12-08T23:34:03.626799+00:00", "meta": {"OBJECT_NAME": "CARBONITE 1 (CBNT-1)", "OBJECT_ID": "2015-032D", "EPOCH": "2025-12-08T14:23:33.743904", "MEAN_MOTION": 14.82715213, "ECCENTRICITY": 0.00141668, "INCLINATION": 97.6403, "RA_OF_ASC_NODE": 163.8265, "ARG_OF_PERICENTER": 195.1352, "MEAN_ANOMALY": 164.944, "EPHEMERIS_TYPE": 0, "CLASSIFICATION_TYPE": "U", "NORAD_CAT_ID": 40718, "ELEMENT_SET_NO": 999, "REV_AT_EPOCH": 56109, "BSTAR": 0.00054764488, "MEAN_MOTION_DOT": 4.378e-05, "MEAN_MOTION_DDOT": 0}, "tle": {"line1": "1 40718U 15032D   25342.59969611  .00004378  00000+0  54764-3 0  9993", "line2": "2 40718  97.6403 163.8265 0014166 195.1352 164.9440 14.82715213561099"}}, "geometry": {"type": "Point", "coordinates": [-28.579882095908065, -58.73322546605589]}}, {"type": "Feature", "properties": {"norad_id": 40878, "name": "YAOGAN-27", "group": "resource", "lat": 28.229919603064122, "lon": -32.71919254879159, "alt_km": 1198.6154188708788, "timestamp": "2025-12-08T23:34:03.626809+00:00", "meta": {"OBJECT_NAME": "YAOGAN-27", "OBJECT_ID": "2015-040A", "EPOCH": "2025-12-08T14:17:58.972416", "MEAN_MOTION": 13.1606006, "ECCENTRICITY": 0.00076529, "INCLINATION": 100.1008, "RA_OF_ASC_NODE": 332.4034, "ARG_OF_PERICENTER": 296.9723, "MEAN_ANOMALY": 63.0609, "EPHEMERIS_TYPE": 0, "CLASSIFICATION_TYPE": "U", "NORAD_CAT_ID": 40878, "ELEMENT_SET_NO": 999, "REV_AT_EPOCH": 49259, "BSTAR": 2.3133243e-05, "MEAN_MOTION_DOT": -3.4e-07, "MEAN_MOTION_DDOT": 0}, "tle": {"line1": "1 40878U 15040A   25342.59582144 -.00000034  00000+0  23133-4 0  9994", "line2": "2 40878 100.1008 332.4034 0007652 296.9723  63.0609 13.16060060492592"}}, "geometry": {"type": "Point", "coordinates": [-32.71919254879159, 28.229919603064122]}}, {"type": "Feature", "properties": {"norad_id": 40894, "name": "GAOFEN-9 01", "group": "resource", "lat": 14.982822225092947, "lon": -155.8374890960608, "alt_km": 632.196039434848, "timestamp": "2025-12-08T23:34:03.626819+00:00", "meta": {"OBJECT_NAME": "GAOFEN-9 01", "OBJECT_ID": "2015-047A", "EPOCH": "2025-12-08T14:43:45.340608", "MEAN_MOTION": 14.82407748, "ECCENTRICITY": 0.00286873, "INCLINATION": 97.6547, "RA_OF_ASC_NODE": 21.7474, "ARG_OF_PERICENTER": 47.3422, "MEAN_ANOMALY": 313.0203, "EPHEMERIS_TYPE": 0, "CLASSIFICATION_TYPE": "U", "NORAD_CAT_ID": 40894, "ELEMENT_SET_NO": 999, "REV_AT_EPOCH": 55195, "BSTAR": 0.00028620692, "MEAN_MOTION_DOT": 2.258e-05, "MEAN_MOTION_DDOT": 0}, "tle": {"line1": "1 40894U 15047A   25342.61371922  .00002258  00000+0  28621-3 0  9997", "line2": "2 40894  97.6547  21.7474 0028687  47.3422 313.0203 14.82407748551955"}}, "geometry": {"type": "Point", "coordinates": [-155.8374890960608, 14.982822225092947]}}, {"type": "Feature", "properties": {"norad_id": 41026, "name": "YAOGAN-28", "group": "resource", "lat": 68.65477480738454, "lon": -40.02251788735329, "alt_km": 478.96729764893644, "timestamp": "2025-12-08T23:34:03.626830+00:00", "meta": {"OBJECT_NAME": "YAOGAN-28", "OBJECT_ID": "2015-064A", "EPOCH": "2025-12-08T15:12:31.550400", "MEAN_MOTION": 15.24245641, "ECCENTRICITY": 0.00122282, "INCLINATION": 97.2809, "RA_OF_ASC_NODE": 120.5424, "ARG_OF_PERICENTER": 139.388, "MEAN_ANOMALY": 220.8272, "EPHEMERIS_TYPE": 0, "CLASSIFICATION_TYPE": "U", "NORAD_CAT_ID": 41026, "ELEMENT_SET_NO": 999, "REV_AT_EPOCH": 56162, "BSTAR": 0.0004579397, "MEAN_MOTION_DOT": 0.00011133, "MEAN_MOTION_DDOT": 0}, "tle": {"line1": "1 41026U 15064A   25342.63369850  .00011133  00000+0  45794-3 0  9995", "line2": "2 41026  97.2809 120.5424 0012228 139.3880 220.8272 15.24245641561622"}}, "geometry": {"type": "Point", "coordinates": [-40.02251788735329, 68.65477480738454]}}, {"type": "Feature", "properties": {"norad_id": 41038, "name": "YAOGAN-29", "group": "resource", "lat": 45.26731634238922, "lon": -2.0425419173788324, "alt_km": 616.2493162457185, "timestamp": "2025-12-08T23:34:03.626840+00:00", "meta": {"OBJECT_NAME": "YAOGAN-29", "OBJECT_ID": "2015-069A", "EPOCH": "2025-12-08T15:15:51.660576", "MEAN_MOTION": 14.82876275, "ECCENTRICITY": 3.613e-05, "INCLINATION": 98.0222, "RA_OF_ASC_NODE": 5.7944, "ARG_OF_PERICENTER": 348.0206, "MEAN_ANOMALY": 12.0998, "EPHEMERIS_TYPE": 0, "CLASSIFICATION_TYPE": "U", "NORAD_CAT_ID": 41038, "ELEMENT_SET_NO": 999, "REV_AT_EPOCH": 54238, "BSTAR": 0.00012427207, "MEAN_MOTION_DOT": 9.53e-06, "MEAN_MOTION_DDOT": 0}, "tle": {"line1": "1 41038U 15069A   25342.63601459  .00000953  00000+0  12427-3 0  9992", "line2": "2 41038  98.0222   5.7944 0000361 348.0206  12.0998 14.82876275542384"}}, "geometry": {"type": "Point", "coordinates": [-2.0425419173788324, 45.26731634238922]}}, {"type": "Feature", "properties": {"norad_id": 41167, "name": "KENT RIDGE 1", "group": "resource", "lat": 12.849363907127119, "lon": -62.41460159081304, "alt_km": 490.86936616396815, "timestamp": "2025-12-08T23:34:03.626851+00:00", "meta": {"OBJECT_NAME": "KENT RIDGE 1", "OBJECT_ID": "2015-077B", "EPOCH": "2025-12-08T09:08:56.258880", "MEAN_MOTION": 15.21584138, "ECCENTRICITY": 0.00085513, "INCLINATION": 14.979, "RA_OF_ASC_NODE": 243.4838, "ARG_OF_PERICENTER": 69.0212, "MEAN_ANOMALY": 291.1024, "EPHEMERIS_TYPE": 0, "CLASSIFICATION_TYPE": "U", "NORAD_CAT_ID": 41167, "ELEMENT_SET_NO": 999, "REV_AT_EPOCH": 55197, "BSTAR": 0.00025732227, "MEAN_MOTION_DOT": 6.745e-05, "MEAN_MOTION_DDOT": 0}, "tle": {"line1": "1 41167U 15077B   25342.38120670  .00006745  00000+0  25732-3 0  9995", "line2": "2 41167  14.9790 243.4838 0008551  69.0212 291.1024 15.21584138551976"}}, "geometry": {"type": "Point", "coordinates": [-62.41460159081304, 12.849363907127119]}}, {"type": "Feature", "properties": {"norad_id": 41194, "name": "GAOFEN-4", "group": "resource", "lat": 0.15259925117822187, "lon": 177.1930088127082, "alt_km": 35771.61391288782, "timestamp": "2025-12-08T23:34:03.626865+00:00", "meta": {"OBJECT_NAME": "GAOFEN-4", "OBJECT_ID": "2015-083A", "EPOCH": "2025-12-08T14:06:26.851392", "MEAN_MOTION": 1.00271346, "ECCENTRICITY": 0.00035306, "INCLINATION": 0.1597, "RA_OF_ASC_NODE": 81.0353, "ARG_OF_PERICENTER": 105.4236, "MEAN_ANOMALY": 208.4534, "EPHEMERIS_TYPE": 0, "CLASSIFICATION_TYPE": "U", "NORAD_CAT_ID": 41194, "ELEMENT_SET_NO": 999, "REV_AT_EPOCH": 3661, "BSTAR": 0, "MEAN_MOTION_DOT": -3.32e-06, "MEAN_MOTION_DDOT": 0}, "tle": {"line1": "1 41194U 15083A   25342.58781078 -.00000332  00000+0  00000+0 0  9993", "line2": "2 41194   0.1597  81.0353 0003530 105.4236 208.4534  1.00271346 36611"}}, "geometry": {"type": "Point", "coordinates": [177.1930088127082, 0.15259925117822187]}}, {"type": "Feature", "properties": {"norad_id": 41240, "name": "JASON-3", "group": "resource", "lat": 5.192534222841443, "lon": -16.59107668845282, "alt_km": 1312.7562275177715, "timestamp": "2025-12-08T23:34:03.626877+00:00", "meta": {"OBJECT_NAME": "JASON-3", "OBJECT_ID": "2016-002A", "EPOCH": "2025-12-08T15:12:32.245056", "MEAN_MOTION": 12.87626339, "ECCENTRICITY": 0.00071324, "INCLINATION": 66.039, "RA_OF_ASC_NODE": 166.4569, "ARG_OF_PERICENTER": 270.5019, "MEAN_ANOMALY": 89.5183, "EPHEMERIS_TYPE": 0, "CLASSIFICATION_TYPE": "U", "NORAD_CAT_ID": 41240, "ELEMENT_SET_NO": 999, "REV_AT_EPOCH": 46271, "BSTAR": 3.8557079e-05, "MEAN_MOTION_DOT": -5.2e-07, "MEAN_MOTION_DDOT": 0}, "tle": {"line1": "1 41240U 16002A   25342.63370654 -.00000052  00000+0  38557-4 0  9999", "line2": "2 41240  66.0390 166.4569 0007132 270.5019  89.5183 12.87626339462712"}}, "geometry": {"type": "Point", "coordinates": [-16.59107668845282, 5.192534222841443]}}]}